OBJECT_NAME,OBJECT_ID,EPOCH,MEAN_MOTION,ECCENTRICITY,INCLINATION,RA_OF_ASC_NODE,ARG_OF_PERICENTER,MEAN_ANOMALY,EPHEMERIS_TYPE,CLASSIFICATION_TYPE,NORAD_CAT_ID,ELEMENT_SET_NO,REV_AT_EPOCH,BSTAR,MEAN_MOTION_DOT,MEAN_MOTION_DDOT
ATLAS CENTAUR 2,1963-047A,2026-06-20T11:02:13.843680,14.12524868,.0546005,30.3587,341.0931,266.3690,87.4341,0,U,694,999,14616,.88115E-4,.848E-5,0
THOR AGENA D R/B,1964-002A,2026-06-20T02:05:43.437120,14.34066354,.00321869,99.1153,189.9758,321.9802,37.9109,0,U,733,999,25297,.50192916E-4,.92E-6,0
SL-3 R/B,1964-053B,2026-06-20T08:10:51.875616,14.61427795,.0080954,65.0776,30.2658,260.1229,99.0725,0,U,877,999,28179,.31839E-4,.39E-6,0
SL-8 R/B,1967-045B,2026-06-20T09:46:43.566816,14.45683390,.0063315,74.0095,156.2439,139.7859,220.8009,0,U,2802,999,10386,.55142E-4,.172E-5,0
SL-8 R/B,1968-040B,2026-06-20T07:25:54.711264,15.03830802,.0025973,74.0309,103.9051,256.5750,103.2543,0,U,3230,999,10543,.14802E-3,.2007E-4,0
OAO 2,1968-110A,2026-06-20T08:46:47.565120,14.47353113,.0006143,34.9945,51.9301,296.6747,63.3315,0,U,3597,999,3398,.4465E-4,.147E-5,0
ISIS 1,1969-009A,2026-06-20T09:04:04.776384,11.30434104,.1706318,88.4426,144.0490,241.7756,100.0821,0,U,3669,999,36013,.33808E-4,.47E-6,0
SERT 2,1970-009A,2026-06-20T10:20:21.245280,13.58739486,.0003929,99.2841,108.9699,263.0931,205.2164,0,U,4327,999,79384,.67682E-4,.8E-7,0
SL-3 R/B,1971-028B,2026-06-20T10:24:20.320992,15.70016407,.0014087,81.2330,284.2794,268.2280,91.7365,0,U,5118,999,475,.368E-3,.44626E-3,0
ASTEX 1,1971-089A,2026-06-20T10:50:36.436704,14.50853638,.001799,92.6996,184.9072,96.6331,263.6924,0,U,5560,999,87720,.66146E-4,.26E-5,0
SL-8 R/B,1971-119B,2026-06-20T01:48:17.295552,14.39521149,.0543726,73.8878,344.0478,289.4327,64.8851,0,U,5730,999,67021,.1362375E-3,.2617E-4,0
OAO 3 (COPERNICUS),1972-065A,2026-06-20T11:17:30.950304,14.60061684,.0007324,35.0063,71.6957,279.7806,246.6682,0,U,6153,999,86122,.45684E-4,.202E-5,0
ATLAS CENTAUR R/B,1972-065B,2026-06-20T09:14:56.969376,14.77926028,.0033227,35.0020,63.7919,156.1715,204.0531,0,U,6155,999,85646,.10485E-3,.75E-5,0
SL-8 R/B,1975-112B,2026-06-20T10:46:38.751168,14.38247985,.001684,74.0589,189.8731,256.4490,103.4789,0,U,8459,999,64664,.73575E-4,.198E-5,0
SL-3 R/B,1977-057B,2026-06-20T10:47:01.292064,15.47942080,.0005481,97.5846,348.1477,270.3163,89.7459,0,U,10114,999,68421,.1844E-3,.9524E-4,0
SEASAT 1,1978-064A,2026-06-20T10:06:41.160672,14.46245232,.0001736,108.0177,341.0778,240.3380,119.7593,0,U,10967,999,52136,.81052E-4,.153E-5,0
SL-14 R/B,1979-011B,2026-06-19T23:48:53.666784,14.92016398,.0017501,82.5237,359.4916,77.0548,283.2625,0,U,11267,999,54403,.35045721E-4,.382E-5,0
SL-8 R/B,1979-089B,2026-06-20T09:29:20.537376,14.42405235,.0015063,74.0692,260.9186,43.4442,316.7899,0,U,11574,999,45091,.54296E-4,.153E-5,0
SL-14 R/B,1980-005B,2026-06-20T01:44:40.075584,14.91030703,.00157648,82.5137,210.1032,176.2237,183.9104,0,U,11672,999,49174,.30691344E-4,.33E-5,0
SL-8 R/B,1981-003B,2026-06-20T07:46:52.995936,15.14312178,.0250699,82.9369,194.8563,180.2463,179.8693,0,U,12139,999,33019,.37423E-3,.15379E-3,0
SL-3 R/B,1981-046B,2026-06-20T10:18:10.682784,15.44255582,.0018212,81.2300,166.1632,27.0043,333.2144,0,U,12465,999,45427,.20483E-3,.9505E-4,0
SL-3 R/B,1981-103B,2026-06-20T09:44:59.751168,15.22306802,.0011585,81.1583,92.8515,304.2957,55.7178,0,U,12904,999,98885,.16417E-3,.3813E-4,0
SL-3 R/B,1982-013B,2026-06-20T09:02:33.118080,15.22803669,.0021614,81.1737,40.3138,189.9619,170.1188,0,U,13068,999,41997,.12659E-3,.3004E-4,0
SL-3 R/B,1982-039B,2026-06-20T09:54:57.029184,15.10556543,.0028423,81.1452,97.3585,345.3909,14.6491,0,U,13154,999,39714,.17199E-3,.2886E-4,0
SL-3 R/B,1982-079B,2026-06-20T09:29:10.290336,15.25810833,.0023963,81.1459,71.6927,174.6099,185.5398,0,U,13403,999,39335,.15341E-3,.398E-4,0
SL-14 R/B,1982-092B,2026-06-20T10:31:07.765248,14.86749668,.0019372,82.5679,45.2613,324.0622,209.2871,0,U,13553,999,34419,.28765E-4,.281E-5,0
SL-3 R/B,1983-010B,2026-06-20T05:22:21.905760,15.49310432,.0015294,81.1007,236.2255,52.2916,307.9714,0,U,13819,999,37380,.20746E-3,.11434E-3,0
SL-3 R/B,1983-075B,2026-06-20T10:43:13.693728,15.40541433,.0019624,97.6107,180.0842,216.5803,143.4104,0,U,14208,999,34596,.19656E-3,.7944E-4,0
COSMOS 1536,1984-013A,2026-06-20T01:11:03.453792,15.25076395,.0012583,82.5443,5.9936,284.0426,75.9412,0,U,14699,999,28821,.17893073E-3,.4515E-4,0
SL-14 R/B,1984-027B,2026-06-20T10:43:37.462368,14.86061732,.0017847,82.5412,148.6601,358.5562,1.5600,0,U,14820,999,26289,.35086E-4,.332E-5,0
SL-8 R/B,1985-006B,2026-06-20T03:55:56.627040,14.37836124,.00189367,74.0460,72.5867,319.2357,191.2299,0,U,15483,999,16875,.59355072E-4,.153E-5,0
